     3.00           N                   E                   RINEX VERSION / TYPE
BRD_USR             ESA                 20190112 031745  UTCPGM / RUN BY / DATE
 GAL   4.0250E+01  4.2969E-02 -8.8501E-04  0.0000E+00       IONOSPHERIC CORR
GAUT  2.7939677238E-09-1.776356839E-15 518400 2035 GSTB   0 TIME SYSTEM CORR
GPGA  2.1827872843E-09 1.199040867E-14 518400 2035 GSTB   0 TIME SYSTEM CORR
                                                            END OF HEADER
E05 2019 01 12 00 40 00 1.266313483939E-04-6.536993168993E-12 0.000000000000E+00
     1.000000000000E+02 1.656250000000E+00 3.172274995130E-09-3.064143429804E+00
     2.421438694000E-08 1.337251160294E-04 1.084618270397E-05 5.440620021820E+03
     5.208000000000E+05-1.117587089539E-08 1.241662186957E+00-3.352761268616E-08
     9.524550913605E-01 1.033750000000E+02 1.624221262649E+00-5.512372469582E-09
     2.307238962907E-10 5.210000000000E+02 2.035000000000E+03 0.000000000000E+00
     3.120000000000E+00 0.000000000000E+00-1.164153218269E-09-1.396983861923E-09
     5.220250000000E+05 0.000000000000E+00 0.000000000000E+00 0.000000000000E+00
E07 2019 01 12 00 20 00-1.108695869334E-04-7.062794793455E-12 0.000000000000E+00
     9.800000000000E+01-2.862500000000E+01 3.095843240012E-09 2.352674346490E+00
    -1.270323991776E-06 1.355715794489E-04 1.169368624687E-05 5.440624204636E+03
     5.196000000000E+05 3.911554813385E-08 1.241686554783E+00 5.587935447693E-09
     9.524852625829E-01 8.212500000000E+01-1.608554353603E-02-5.527373094419E-09
     2.435815747217E-10 5.210000000000E+02 2.035000000000E+03 0.000000000000E+00
     3.120000000000E+00 0.000000000000E+00 2.328306436539E-10 0.000000000000E+00
     5.220250000000E+05 0.000000000000E+00 0.000000000000E+00 0.000000000000E+00
E08 2019 01 12 00 40 00 6.425219704397E-03-7.503331289627E-12 0.000000000000E+00
     1.000000000000E+02-1.768750000000E+01 2.985838657879E-09 2.814839332465E+00
    -7.823109626770E-07 2.141880104318E-04 1.220591366291E-05 5.440621545792E+03
     5.208000000000E+05 2.421438694000E-08 1.233065351790E+00 2.980232238770E-08
     9.584290548515E-01 7.593750000000E+01 4.571285920522E-01-5.468084910542E-09
     2.671539851787E-10 5.210000000000E+02 2.035000000000E+03 0.000000000000E+00
     3.120000000000E+00 0.000000000000E+00-8.614733815193E-09-9.778887033463E-09
     5.220250000000E+05 0.000000000000E+00 0.000000000000E+00 0.000000000000E+00
E09 2019 01 12 00 40 00 6.560970970895E-03-1.128341864387E-11 0.000000000000E+00
     1.000000000000E+02-1.021875000000E+01 3.023340219970E-09-7.397781500436E-01
    -4.097819328308E-07 2.416835632175E-04 1.056492328644E-05 5.440624029160E+03
     5.208000000000E+05 3.725290298462E-09 1.233062336716E+00-9.313225746155E-09
     9.584587389222E-01 1.110000000000E+02 8.348908880995E-02-5.488800059125E-09
     2.664396697103E-10 5.210000000000E+02 2.035000000000E+03 0.000000000000E+00
     3.120000000000E+00 0.000000000000E+00-3.259629011154E-09-3.958120942116E-09
     5.220250000000E+05 0.000000000000E+00 0.000000000000E+00 0.000000000000E+00
E11 2019 01 12 00 40 00 5.719601002056E-03 8.952838470577E-13 0.000000000000E+00
     1.000000000000E+02 1.921875000000E+01 3.002625071386E-09 1.793592939557E+00
     9.238719940186E-07 2.701157936826E-04 2.961605787277E-06 5.440604513168E+03
     5.208000000000E+05 9.313225746155E-09-8.636312464851E-01 6.519258022308E-08
     9.819159778618E-01 2.859375000000E+02-3.541590052184E-01-5.775597719685E-09
     1.064330047904E-10 5.210000000000E+02 2.035000000000E+03 0.000000000000E+00
     3.120000000000E+00 0.000000000000E+00-1.839362084866E-08-1.979060471058E-08
     5.220250000000E+05 0.000000000000E+00 0.000000000000E+00 0.000000000000E+00
E12 2019 01 11 23 40 00 5.922043463215E-03 8.439826615358E-11 0.000000000000E+00
     9.400000000000E+01 1.493750000000E+01 2.920478792521E-09 2.656891024004E+00
     6.929039955139E-07 3.948479425162E-04 3.099441528320E-06 5.440605554581E+03
     5.172000000000E+05-3.539025783539E-08-8.636260487372E-01 3.539025783539E-08
     9.819300394304E-01 2.844062500000E+02-8.601408541477E-01-5.730595845176E-09
     9.821837690392E-11 5.210000000000E+02 2.035000000000E+03 0.000000000000E+00
     3.120000000000E+00 0.000000000000E+00-1.583248376846E-08-1.629814505577E-08
     5.220250000000E+05 0.000000000000E+00 0.000000000000E+00 0.000000000000E+00
E13 2019 01 12 00 40 00 3.816209500656E-04 4.263256414561E-13 0.000000000000E+00
     1.000000000000E+02 3.040625000000E+01 2.994767601234E-09-1.828961160945E-01
     1.473352313042E-06 3.432499943301E-04 3.665685653687E-06 5.440596233368E+03
     5.208000000000E+05 1.676380634308E-08-8.689203448773E-01-1.490116119385E-08
     9.851575497777E-01 2.741875000000E+02-1.512755904881E+00-5.769883195938E-09
     1.725071856167E-10 5.210000000000E+02 2.035000000000E+03 0.000000000000E+00
    -1.000000000000E+00 4.550000000000E+02-4.423782229424E-09-5.355104804039E-09
     5.220250000000E+05 0.000000000000E+00 0.000000000000E+00 0.000000000000E+00
E14 2019 01 12 00 40 00 6.461265264079E-03-5.570655048359E-12 0.000000000000E+00
     1.000000000000E+02 1.487500000000E+01 1.965796169015E-09 1.165272711269E+00
    -1.490116119385E-08 1.662747333758E-01 6.204470992088E-06 5.289359310150E+03
     5.208000000000E+05 4.759058356285E-06-1.465419672109E+00 1.426786184311E-06
     8.826498895679E-01 1.880312500000E+02 1.456871935398E+00-2.058300022172E-09
    -5.260933424708E-10 5.210000000000E+02 2.035000000000E+03 0.000000000000E+00
     3.120000000000E+00 4.550000000000E+02 3.306195139885E-08 3.725290298462E-08
     5.220250000000E+05 0.000000000000E+00 0.000000000000E+00 0.000000000000E+00
E15 2019 01 11 23 40 00 9.232187876478E-04-1.023181539495E-12 0.000000000000E+00
     9.400000000000E+01 3.159375000000E+01 2.968695086638E-09 2.443832271309E-01
     1.497566699982E-06 3.895122790709E-04 3.512948751450E-06 5.440592739105E+03
     5.172000000000E+05 9.313225746155E-09-8.689109690353E-01-4.470348358154E-08
     9.851155552513E-01 2.787812500000E+02-1.604083980239E+00-5.752025309228E-09
     1.432202514126E-10 5.210000000000E+02 2.035000000000E+03 0.000000000000E+00
     3.120000000000E+00 4.550000000000E+02 1.396983861923E-09 1.396983861923E-09
     5.220250000000E+05 0.000000000000E+00 0.000000000000E+00 0.000000000000E+00
E18 2019 01 12 00 40 00 5.613135348540E-03-2.843592028512E-11 0.000000000000E+00
     1.000000000000E+02 1.061250000000E+02 3.699439810803E-09-2.006710914101E+00
     6.999820470810E-06 1.663127591601E-01 1.747161149979E-06 5.289387691498E+03
     5.208000000000E+05 2.237036824226E-06-1.448214860190E+00 3.725290298462E-08
     8.818304930596E-01 2.874687500000E+02 1.441388182232E+00-5.224146178086E-09
     8.839653921353E-10 5.210000000000E+02 2.035000000000E+03 0.000000000000E+00
     3.120000000000E+00 4.550000000000E+02 1.420266926289E-08 1.583248376846E-08
     5.220250000000E+05 0.000000000000E+00 0.000000000000E+00 0.000000000000E+00
E19 2019 01 12 00 40 00-9.190640412271E-06 3.979039320257E-13 0.000000000000E+00
     1.000000000000E+02-3.200000000000E+01 3.014411276615E-09-1.388697220173E+00
    -1.421198248863E-06 1.314722467214E-04 1.071393489838E-05 5.440619014740E+03
     5.208000000000E+05-4.842877388000E-08 1.238417586801E+00 9.313225746155E-09
     9.582150708982E-01 1.097187500000E+02 2.382599554412E+00-5.404510833855E-09
     2.510818871398E-10 5.210000000000E+02 2.035000000000E+03 0.000000000000E+00
     3.120000000000E+00 0.000000000000E+00-8.614733815193E-09-8.847564458847E-09
     5.220250000000E+05 0.000000000000E+00 0.000000000000E+00 0.000000000000E+00
E21 2019 01 12 00 40 00-5.139810382389E-04-1.961097950698E-12 0.000000000000E+00
     1.000000000000E+02-3.531250000000E+00 2.948694253523E-09-5.795501236746E-01
    -1.322478055954E-07 4.776578862220E-05 7.240101695061E-06 5.440622253418E+03
     5.208000000000E+05 2.793967723846E-08-2.951543909685E+00-1.862645149231E-08
     9.897190044206E-01 2.014687500000E+02 2.059547961697E-01-5.482728377644E-09
    -3.525146836515E-10 5.210000000000E+02 2.035000000000E+03 0.000000000000E+00
     3.120000000000E+00 0.000000000000E+00-2.328306436539E-09-3.026798367500E-09
     5.220250000000E+05 0.000000000000E+00 0.000000000000E+00 0.000000000000E+00
E24 2019 01 11 23 50 00 6.290777761023E-03-1.962519036169E-11 0.000000000000E+00
     9.500000000000E+01 1.656250000000E+00 2.878334179886E-09 2.671250834765E+00
     7.823109626770E-08 4.787014331669E-04 7.804483175278E-06 5.440617143631E+03
     5.178000000000E+05-6.332993507385E-08-2.945457494607E+00-7.450580596924E-09
     9.877250090427E-01 1.873125000000E+02 4.895462290969E-01-5.426297455641E-09
    -3.850160374634E-10 5.210000000000E+02 2.035000000000E+03 0.000000000000E+00
     3.120000000000E+00 0.000000000000E+00 4.284083843231E-08 4.796311259270E-08
     5.220250000000E+05 0.000000000000E+00 0.000000000000E+00 0.000000000000E+00
E25 2019 01 11 23 40 00 1.926606113557E-03-1.126920778916E-11 0.000000000000E+00
     9.400000000000E+01-3.625000000000E+00 2.842261248732E-09-2.637058947267E+00
    -6.891787052155E-08 1.941639930010E-04 7.923692464828E-06 5.440625841141E+03
     5.172000000000E+05-3.911554813385E-08-2.951533910640E+00-2.235174179077E-08
     9.897260161870E-01 1.856250000000E+02-1.322849311264E+00-5.364866325359E-09
    -3.589435228671E-10 5.210000000000E+02 2.035000000000E+03 0.000000000000E+00
     3.120000000000E+00 0.000000000000E+00-1.396983861923E-09-1.629814505577E-09
     5.220250000000E+05 0.000000000000E+00 0.000000000000E+00 0.000000000000E+00
